{
    "links": {
        "self": "http://www.neowsapp.com/rest/v1/neo/3742131?api_key=iIulBulltgU6a56xZRHN4H3l9WmuAYTsLGpBGhQ2"
    },
    "id": "3742131",
    "neo_reference_id": "3742131",
    "name": "(2016 CF32)",
    "designation": "2016 CF32",
    "nasa_jpl_url": "http://ssd.jpl.nasa.gov/sbdb.cgi?sstr=3742131",
    "absolute_magnitude_h": 23.7,
    "estimated_diameter": {
        "kilometers": {
            "estimated_diameter_min": 0.0483676488,
            "estimated_diameter_max": 0.1081533507
        },
        "meters": {
            "estimated_diameter_min": 48.3676488219,
            "estimated_diameter_max": 108.1533506775
        },
        "miles": {
            "estimated_diameter_min": 0.0300542543,
            "estimated_diameter_max": 0.0672033557
        },
        "feet": {
            "estimated_diameter_min": 158.6865169607,
            "estimated_diameter_max": 354.8338390368
        }
    },
    "is_potentially_hazardous_asteroid": false,
    "close_approach_data": [
        {
            "close_approach_date": "2016-02-02",
            "close_approach_date_full": "2016-Feb-02 08:31",
            "epoch_date_close_approach": 1454401860000,
            "relative_velocity": {
                "kilometers_per_second": "1.5457862347",
                "kilometers_per_hour": "5564.8304449066",
                "miles_per_hour": "3457.7692283921"
            },
            "miss_distance": {
                "astronomical": "0.1517943727",
                "lunar": "59.0480109803",
                "kilometers": "22708114.833906149",
                "miles": "14110168.2605928962"
            },
            "orbiting_body": "Earth"
        },
        {
            "close_approach_date": "2020-02-13",
            "close_approach_date_full": "2020-Feb-13 02:17",
            "epoch_date_close_approach": 1581560220000,
            "relative_velocity": {
                "kilometers_per_second": "7.402939221",
                "kilometers_per_hour": "26650.5811956328",
                "miles_per_hour": "16559.6347434753"
            },
            "miss_distance": {
                "astronomical": "0.0805663118",
                "lunar": "31.3402952902",
                "kilometers": "12052548.639035866",
                "miles": "7489106.4498163108"
            },
            "orbiting_body": "Mars"
        }
    ],
    "orbital_data": {
        "orbit_id": "10",
        "orbit_determination_date": "2017-04-06 08:28:32",
        "first_observation_date": "2016-02-06",
        "last_observation_date": "2016-03-26",
        "data_arc_in_days": 49,
        "observations_used": 39,
        "orbit_uncertainty": "7",
        "minimum_orbit_intersection": ".15029",
        "jupiter_tisserand_invariant": "4.524",
        "epoch_osculation": "2459000.5",
        "eccentricity": ".2570470836761661",
        "semi_major_axis": "1.489400856173343",
        "inclination": "4.854914012039478",
        "ascending_node_longitude": "31.9656334705221",
        "orbital_period": "663.9201131708124",
        "perihelion_distance": "1.106554709669201",
        "perihelion_argument": "93.73820606024866",
        "aphelion_distance": "1.872247002677486",
        "perihelion_time": "2458740.020688635792",
        "mean_anomaly": "141.2407159097307",
        "mean_motion": ".5422339116684957",
        "equinox": "J2000",
        "orbit_class": {
            "orbit_class_type": "AMO",
            "orbit_class_description": "Near-Earth asteroid orbits similar to that of 1221 Amor",
            "orbit_class_range": "1.017 AU < q (perihelion) < 1.3 AU"
        }
    },
    "is_sentry_object": false
}